{
    "links": {
        "self": "http://www.neowsapp.com/rest/v1/neo/3838840?api_key=iIulBulltgU6a56xZRHN4H3l9WmuAYTsLGpBGhQ2"
    },
    "id": "3838840",
    "neo_reference_id": "3838840",
    "name": "(2019 DR)",
    "designation": "2019 DR",
    "nasa_jpl_url": "http://ssd.jpl.nasa.gov/sbdb.cgi?sstr=3838840",
    "absolute_magnitude_h": 25.5,
    "estimated_diameter": {
        "kilometers": {
            "estimated_diameter_min": 0.0211132445,
            "estimated_diameter_max": 0.0472106499
        },
        "meters": {
            "estimated_diameter_min": 21.113244479,
            "estimated_diameter_max": 47.2106498806
        },
        "miles": {
            "estimated_diameter_min": 0.0131191578,
            "estimated_diameter_max": 0.0293353287
        },
        "feet": {
            "estimated_diameter_min": 69.2691770164,
            "estimated_diameter_max": 154.8905885541
        }
    },
    "is_potentially_hazardous_asteroid": false,
    "close_approach_data": [
        {
            "close_approach_date": "2019-02-14",
            "close_approach_date_full": "2019-Feb-14 03:57",
            "epoch_date_close_approach": 1550116620000,
            "relative_velocity": {
                "kilometers_per_second": "6.6490494524",
                "kilometers_per_hour": "23936.5780287379",
                "miles_per_hour": "14873.2587201344"
            },
            "miss_distance": {
                "astronomical": "0.0369473124",
                "lunar": "14.3725045236",
                "kilometers": "5527239.237264588",
                "miles": "3434467.2036757944"
            },
            "orbiting_body": "Earth"
        },
        {
            "close_approach_date": "2028-03-13",
            "close_approach_date_full": "2028-Mar-13 21:59",
            "epoch_date_close_approach": 1836597540000,
            "relative_velocity": {
                "kilometers_per_second": "17.2887024807",
                "kilometers_per_hour": "62239.3289304394",
                "miles_per_hour": "38673.0985790277"
            },
            "miss_distance": {
                "astronomical": "0.3828828823",
                "lunar": "148.9414412147",
                "kilometers": "57278463.651540701",
                "miles": "35591186.9277996338"
            },
            "orbiting_body": "Earth"
        }
    ],
    "orbital_data": {
        "orbit_id": "8",
        "orbit_determination_date": "2019-03-27 07:28:08",
        "first_observation_date": "2019-02-26",
        "last_observation_date": "2019-03-26",
        "data_arc_in_days": 28,
        "observations_used": 73,
        "orbit_uncertainty": "7",
        "minimum_orbit_intersection": ".0159735",
        "jupiter_tisserand_invariant": "4.503",
        "epoch_osculation": "2459000.5",
        "eccentricity": ".3479542281555622",
        "semi_major_axis": "1.485670085922719",
        "inclination": "2.845117294787228",
        "ascending_node_longitude": "333.3922338662293",
        "orbital_period": "661.4271157583811",
        "perihelion_distance": ".9687248978816714",
        "perihelion_argument": "137.8689996712964",
        "aphelion_distance": "2.002615273963765",
        "perihelion_time": "2459162.896679193602",
        "mean_anomaly": "271.6111161504709",
        "mean_motion": ".5442776557281449",
        "equinox": "J2000",
        "orbit_class": {
            "orbit_class_type": "APO",
            "orbit_class_description": "Near-Earth asteroid orbits which cross the Earth’s orbit similar to that of 1862 Apollo",
            "orbit_class_range": "a (semi-major axis) > 1.0 AU; q (perihelion) < 1.017 AU"
        }
    },
    "is_sentry_object": false
}